NORAD_CAT_ID,OBJECT_NAME,OBJECT_TYPE,EPOCH,MEAN_MOTION,ECCENTRICITY,INCLINATION,RA_OF_ASC_NODE,ARG_OF_PERICENTER,MEAN_ANOMALY,BSTAR,MEAN_MOTION_DOT,MEAN_MOTION_DDOT,TLE_LINE0,TLE_LINE1,TLE_LINE2,SEMIMAJOR_AXIS,PERIOD,APOGEE,PERIGEE,DECAYED
49156.0,STARLINK-3085,PAYLOAD,2024-06-26 00:10:12,14.98338528,0.0003175,69.9998,21.9309,265.8735,94.2062,0.00012882,1.445e-05,0.0,0 STARLINK-3085,1 49156U 21082AC  24178.00709488  .00001445  00000-0  12882-3 0  9994,2 49156  69.9998  21.9309 0003175 265.8735  94.2062 14.98338528154928,6950.167,96.106,574.238,569.825,0.0
49156.0,STARLINK-3085,PAYLOAD,2024-06-26 22:36:06,14.98327766,0.0002855,70.0008,19.5747,261.5078,98.5758,-6.7169e-05,-8.94e-06,0.0,0 STARLINK-3085,1 49156U 21082AC  24178.94174489 -.00000894  00000-0 -67169-4 0  9992,2 49156  70.0008  19.5747 0002855 261.5078  98.5758 14.98327766155066,6950.2,96.107,574.049,570.081,0.0
49156.0,STARLINK-3085,PAYLOAD,2024-06-27 22:38:07,14.9833329,0.0002958,70.0004,17.0499,264.4288,95.6534,-1.2495e-05,-2.42e-06,0.0,0 STARLINK-3085,1 49156U 21082AC  24179.94313932 -.00000242  00000-0 -12495-4 0  9990,2 49156  70.0004  17.0499 0002958 264.4288  95.6534 14.98333290155214,6950.183,96.107,574.104,569.992,0.0
49156.0,STARLINK-3085,PAYLOAD,2024-06-28 14:39:27,14.98331429,0.0003172,69.9995,15.3656,270.9292,89.1503,4.4019e-05,4.32e-06,0.0,0 STARLINK-3085,1 49156U 21082AC  24180.61073813  .00000432  00000-0  44019-4 0  9993,2 49156  69.9995  15.3656 0003172 270.9292  89.1503 14.98331429155319,6950.188,96.107,574.258,569.849,0.0
49156.0,STARLINK-3085,PAYLOAD,2024-06-28 22:40:07,14.98338384,0.000313,69.9995,14.5239,270.9867,89.0933,0.00011685,1.302e-05,0.0,0 STARLINK-3085,1 49156U 21082AC  24180.94453086  .00001302  00000-0  11685-3 0  9992,2 49156  69.9995  14.5239 0003130 270.9867  89.0933 14.98338384155367,6950.167,96.106,574.207,569.857,0.0
49156.0,STARLINK-3085,PAYLOAD,2024-06-29 13:05:18,14.98355038,0.0003335,69.9985,13.0095,271.2343,88.8434,0.00029927,3.482e-05,0.0,0 STARLINK-3085,1 49156U 21082AC  24181.54534783  .00003482  00000-0  29927-3 0  9992,2 49156  69.9985  13.0095 0003335 271.2343  88.8434 14.98355038155458,6950.115,96.105,574.298,569.663,0.0
49156.0,STARLINK-3085,PAYLOAD,2024-06-29 14:41:25,14.98357071,0.0003173,69.9999,12.8422,274.5371,85.5426,0.00031354,3.653e-05,0.0,0 STARLINK-3085,1 49156U 21082AC  24181.61210554  .00003653  00000-0  31354-3 0  9994,2 49156  69.9999  12.8422 0003173 274.5371  85.5426 14.98357071155466,6950.109,96.105,574.179,569.769,0.0
49156.0,STARLINK-3085,PAYLOAD,2024-06-29 19:29:52,14.98323561,0.0003245,69.9995,12.3356,270.5852,89.4935,-0.00014087,-1.773e-05,0.0,0 STARLINK-3085,1 49156U 21082AC  24181.81241540 -.00001773  00000-0 -14087-3 0  9992,2 49156  69.9995  12.3356 0003245 270.5852  89.4935 14.98323561155491,6950.213,96.107,574.333,569.822,0.0
49156.0,STARLINK-3085,PAYLOAD,2024-06-29 22:42:08,14.98326271,0.0003187,69.9996,11.9988,270.1757,89.9036,-0.00010809,-1.382e-05,0.0,0 STARLINK-3085,1 49156U 21082AC  24181.94593300 -.00001382  00000-0 -10809-3 0  9994,2 49156  69.9996  11.9988 0003187 270.1757  89.9036 14.98326271155514,6950.204,96.107,574.284,569.854,0.0
49156.0,STARLINK-3085,PAYLOAD,2024-06-30 14:43:29,14.9832863,0.0002963,70.0002,10.3171,270.1052,89.9767,-9.3563e-05,-1.209e-05,0.0,0 STARLINK-3085,1 49156U 21082AC  24182.61353211 -.00001209  00000-0 -93563-4 0  9991,2 49156  70.0002  10.3171 0002963 270.1052  89.9767 14.98328630155614,6950.197,96.107,574.121,570.003,0.0
49156.0,STARLINK-3085,PAYLOAD,2024-06-30 21:08:00,14.98338303,0.000284,70.0004,9.6437,264.7799,95.3036,-3.1065e-05,-4.64e-06,0.0,0 STARLINK-3085,1 49156U 21082AC  24182.88056353 -.00000464  00000-0 -31065-4 0  9998,2 49156  70.0004   9.6437 0002840 264.7799  95.3036 14.98338303155655,6950.167,96.106,574.006,570.058,0.0
49156.0,STARLINK-3085,PAYLOAD,2024-07-01 13:09:22,14.98337516,0.000261,70.002,7.9604,268.3566,91.7294,-0.00034819,-4.246e-05,0.0,0 STARLINK-3085,1 49156U 21082AC  24183.54817138 -.00004246  00000-0 -34819-3 0  9999,2 49156  70.0020   7.9604 0002610 268.3566  91.7294 14.98337516155759,6950.17,96.107,573.849,570.221,0.0
49156.0,STARLINK-3085,PAYLOAD,2024-07-01 14:45:30,14.9833469,0.000268,70.0015,7.7921,267.7202,92.3651,-0.00037064,-4.513e-05,0.0,0 STARLINK-3085,1 49156U 21082AC  24183.61493337 -.00004513  00000-0 -37064-3 0  9990,2 49156  70.0015   7.7921 0002680 267.7202  92.3651 14.98334690155765,6950.178,96.107,573.906,570.181,0.0
49156.0,STARLINK-3085,PAYLOAD,2024-07-01 22:46:10,14.9833247,0.0002778,70.0007,6.9503,267.7248,92.3593,-0.00036612,-4.459e-05,0.0,0 STARLINK-3085,1 49156U 21082AC  24183.94873434 -.00004459  00000-0 -36612-3 0  9993,2 49156  70.0007   6.9503 0002778 267.7248  92.3593 14.98332470155816,6950.185,96.107,573.981,570.119,0.0
49156.0,STARLINK-3085,PAYLOAD,2024-07-02 13:11:23,14.98326641,0.0002951,69.9999,5.4343,267.5095,92.5726,4.6341e-06,-3.8e-07,0.0,0 STARLINK-3085,1 49156U 21082AC  24184.54957418 -.00000038  00000-0  46341-5 0  9995,2 49156  69.9999   5.4343 0002951 267.5095  92.5726 14.98326641155903,6950.203,96.107,574.119,570.017,0.0
49156.0,STARLINK-3085,PAYLOAD,2024-07-02 14:47:31,14.98327445,0.0002942,70.0,5.266,267.5726,92.5096,1.4786e-05,8.3e-07,0.0,0 STARLINK-3085,1 49156U 21082AC  24184.61633363  .00000083  00000-0  14786-4 0  9999,2 49156  70.0000   5.2660 0002942 267.5726  92.5096 14.98327445155914,6950.201,96.107,574.111,570.021,0.0
49156.0,STARLINK-3085,PAYLOAD,2024-07-02 21:12:03,14.98329922,0.0002919,70.0001,4.5926,268.4347,91.6478,4.7151e-05,4.7e-06,0.0,0 STARLINK-3085,1 49156U 21082AC  24184.88337214  .00000470  00000-0  47151-4 0  9996,2 49156  70.0001   4.5926 0002919 268.4347  91.6478 14.98329922155955,6950.193,96.107,574.087,570.029,0.0
49156.0,STARLINK-3085,PAYLOAD,2024-07-03 13:13:24,14.98313849,0.0003161,70.0001,2.9091,266.005,94.0748,0.00019225,2.201e-05,0.0,0 STARLINK-3085,1 49156U 21082AC  24185.55098028  .00002201  00000-0  19225-3 0  9992,2 49156  70.0001   2.9091 0003161 266.0050  94.0748 14.98313849156055,6950.243,96.108,574.305,569.911,0.0
49156.0,STARLINK-3085,PAYLOAD,2024-07-03 19:37:56,14.98329316,0.0002639,70.0001,2.2357,260.0112,100.075,-1.3314e-05,-2.52e-06,0.0,0 STARLINK-3085,1 49156U 21082AC  24185.81801802 -.00000252  00000-0 -13314-4 0  9993,2 49156  70.0001   2.2357 0002639 260.0112 100.0750 14.98329316156096,6950.195,96.107,573.894,570.226,0.0
49156.0,STARLINK-3085,PAYLOAD,2024-07-03 21:14:04,14.9832357,0.0002583,70.0001,2.0674,261.0745,99.0122,0.00012125,1.354e-05,0.0,0 STARLINK-3085,1 49156U 21082AC  24185.88477903  .00001354  00000-0  12125-3 0  9991,2 49156  70.0001   2.0674 0002583 261.0745  99.0122 14.98323570156105,6950.213,96.107,573.873,570.283,0.0
49156.0,STARLINK-3085,PAYLOAD,2024-07-04 14:51:33,14.98328827,0.0002982,70.0002,0.2164,270.2098,89.872,5.2596e-05,5.35e-06,0.0,0 STARLINK-3085,1 49156U 21082AC  24186.61913949  .00000535  00000-0  52596-4 0  9995,2 49156  70.0002   0.2164 0002982 270.2098  89.8720 14.98328827156219,6950.197,96.107,574.134,569.989,0.0
49156.0,STARLINK-3085,PAYLOAD,2024-07-04 19:39:57,14.98332961,0.0003019,70.0001,359.7106,268.8832,91.1981,4.8162e-05,4.82e-06,0.0,0 STARLINK-3085,1 49156U 21082AC  24186.81941671  .00000482  00000-0  48162-4 0  9995,2 49156  70.0001 359.7106 0003019 268.8832  91.1981 14.98332961156249,6950.184,96.107,574.147,569.95,0.0
49156.0,STARLINK-3085,PAYLOAD,2024-07-04 21:16:05,14.9833424,0.0003017,70.0001,359.5423,269.0231,91.0582,6.3122e-05,6.6e-06,0.0,0 STARLINK-3085,1 49156U 21082AC  24186.88617560  .00000660  00000-0  63122-4 0  9990,2 49156  70.0001 359.5423 0003017 269.0231  91.0582 14.98334240156252,6950.18,96.107,574.142,569.948,0.0
49156.0,STARLINK-3085,PAYLOAD,2024-07-05 14:53:34,14.98331462,0.0003011,70.0002,357.6902,268.8061,91.2753,6.7767e-05,7.16e-06,0.0,0 STARLINK-3085,1 49156U 21082AC  24187.62053643  .00000716  00000-0  67767-4 0  9990,2 49156  70.0002 357.6902 0003011 268.8061  91.2753 14.98331462156363,6950.188,96.107,574.146,569.961,0.0
49156.0,STARLINK-3085,PAYLOAD,2024-07-05 19:41:58,14.98335049,0.0003024,70.0003,357.1859,269.9865,90.0948,0.00010636,1.176e-05,0.0,0 STARLINK-3085,1 49156U 21082AC  24187.82081310  .00001176  00000-0  10636-3 0  9997,2 49156  70.0003 357.1859 0003024 269.9865  90.0948 14.98335049156399,6950.177,96.107,574.144,569.941,0.0
49156.0,STARLINK-3085,PAYLOAD,2024-07-05 21:18:06,14.9833602,0.0003023,70.0003,357.0176,269.9937,90.0875,0.00011547,1.285e-05,0.0,0 STARLINK-3085,1 49156U 21082AC  24187.88757210  .00001285  00000-0  11547-3 0  9995,2 49156  70.0003 357.0176 0003023 269.9937  90.0875 14.98336020156400,6950.174,96.107,574.14,569.938,0.0
49156.0,STARLINK-3085,PAYLOAD,2024-07-06 13:19:27,14.9832797,0.0003004,70.0003,355.3343,270.0139,90.0676,-1.0791e-05,-2.22e-06,0.0,0 STARLINK-3085,1 49156U 21082AC  24188.55517945 -.00000222  00000-0 -10791-4 0  9992,2 49156  70.0003 355.3343 0003004 270.0139  90.0676 14.98327970156507,6950.199,96.107,574.152,569.976,0.0
49156.0,STARLINK-3085,PAYLOAD,2024-07-06 21:20:07,14.98332267,0.0002993,70.0005,354.4928,269.8195,90.2621,1.5291e-05,8.9e-07,0.0,0 STARLINK-3085,1 49156U 21082AC  24188.88897597  .00000089  00000-0  15291-4 0  9991,2 49156  70.0005 354.4928 0002993 269.8195  90.2621 14.98332267156554,6950.186,96.107,574.131,569.971,0.0
49156.0,STARLINK-3085,PAYLOAD,2024-07-07 13:21:28,14.9832484,0.0002839,70.0011,352.8095,271.7719,88.3114,-7.793e-05,-1.023e-05,0.0,0 STARLINK-3085,1 49156U 21082AC  24189.55658361 -.00001023  00000-0 -77930-4 0  9999,2 49156  70.0011 352.8095 0002839 271.7719  88.3114 14.98324840156655,6950.209,96.107,574.047,570.101,0.0
49156.0,STARLINK-3085,PAYLOAD,2024-07-08 03:46:40,14.98331119,0.0002802,70.0012,351.2952,269.9169,90.1669,1.4314e-05,7.8e-07,0.0,0 STARLINK-3085,1 49156U 21082AC  24190.15741833  .00000078  00000-0  14314-4 0  9998,2 49156  70.0012 351.2952 0002802 269.9169  90.1669 14.98331119156742,6950.189,96.107,574.002,570.107,0.0
